ONEWEB-0647             
1 56079U 23043AK  23329.83691774 -.00000084  00000+0 -25801-3 0  9995
2 56079  87.9003  85.2383 0001391  89.3619 270.7671 13.15550388 33572
ONEWEB-0651             
1 56080U 23043AL  23329.83215592 -.00000122  00000+0 -35807-3 0  9997
2 56080  87.8999  85.2108 0001719  84.0549 276.0777 13.15546226 34775
ONEWEB-0718             
1 56081U 23043AM  23329.82739404 -.00000047  00000+0 -15806-3 0  9993
2 56081  87.8950  85.2044 0002020 114.3548 245.7793 13.15549893 33586
GSLV R/B                
1 56082U 23043AN  23329.69332877  .00073937  00000+0  12032-2 0  9995
2 56082  87.4136  55.5147 0020361 148.4759 211.7727 15.52163259 37724
ONEWEB-0561             
1 56710U 23068A   23329.89599136  .00000112  00000+0  19991-3 0  9992
2 56710  88.2913  95.9612 0000951  83.6978 276.4271 13.34315448 26014
ONEWEB-0668             
1 56711U 23068B   23330.00001157 -.00717076  00000+0 -12696+0 0  9996
2 56711  86.7797  62.8527 0012776 279.8157 195.4311 14.70230057  5657
ONEWEB-0676             
1 56712U 23068C   23330.00001157 -.00732701  00000+0 -13603+0 0  9998
2 56712  86.7946  62.7874 0012377 280.0902  59.3879 14.68215979  5680
ONEWEB-0677             
1 56713U 23068D   23329.87495312  .00000024  00000+0  22831-4 0  9994
2 56713  88.3249  93.9976 0001957  79.7706 280.3657 13.34763992 26195
